start=new Date('2022-02-11T00:00:00.000Z').valueOf();
sats=[{"INCLINATION":"53.0520","FILE":"3297147","TIME_SYSTEM":"UTC","OBJECT_ID":"2020-062AQ","SEMIMAJOR_AXIS":"6925.330","ELEMENT_SET_NO":"999","CLASSIFICATION_TYPE":"U","MEAN_ELEMENT_THEORY":"SGP4","GP_ID":"195713734","ARG_OF_PERICENTER":"60.3017","OBJECT_NAME":"STARLINK-1739","DECAY_DATE":null,"EPHEMERIS_TYPE":"0","MEAN_MOTION_DOT":"0.00002841","TLE_LINE1":"1 46363U 20062AQ  22041.80874252  .00002841  00000-0  20951-3 0  9992","PERIOD":"95.592","NORAD_CAT_ID":"46363","RA_OF_ASC_NODE":"170.9684","REV_AT_EPOCH":"8068","COUNTRY_CODE":"US","MEAN_MOTION":"15.06406121","CENTER_NAME":"EARTH","APOAPSIS":"548.254","ECCENTRICITY":"0.00015290","RCS_SIZE":"LARGE","PERIAPSIS":"546.136","MEAN_MOTION_DDOT":"0.0000000000000","REF_FRAME":"TEME","SITE":"AFETR","TLE_LINE2":"2 46363  53.0520 170.9684 0001529  60.3017 299.8124 15.06406121 80681","OBJECT_TYPE":"PAYLOAD","MEAN_ANOMALY":"299.8124","BSTAR":"0.00020951000000","LAUNCH_DATE":"2020-09-03","EPOCH":"2022-02-10T19:24:35.353728"},{"EPOCH":"2022-02-10T16:46:39.934848","BSTAR":"0.00007236600000","LAUNCH_DATE":"2020-09-03","TLE_LINE2":"2 46364  53.0519 151.5393 0007705  55.4835 304.6880 15.06401300 80944","REF_FRAME":"TEME","SITE":"AFETR","MEAN_ANOMALY":"304.6880","OBJECT_TYPE":"PAYLOAD","RCS_SIZE":"LARGE","PERIAPSIS":"541.874","MEAN_MOTION_DDOT":"0.0000000000000","ECCENTRICITY":"0.00077050","APOAPSIS":"552.546","MEAN_MOTION":"15.06401300","CENTER_NAME":"EARTH","REV_AT_EPOCH":"8094","COUNTRY_CODE":"US","RA_OF_ASC_NODE":"151.5393","MEAN_MOTION_DOT":"0.00000794","TLE_LINE1":"1 46364U 20062AR  22041.69907332  .00000794  00000-0  72366-4 0  9999","NORAD_CAT_ID":"46364","PERIOD":"95.592","OBJECT_NAME":"STARLINK-1763","DECAY_DATE":null,"EPHEMERIS_TYPE":"0","GP_ID":"195713984","ARG_OF_PERICENTER":"55.4835","OBJECT_ID":"2020-062AR","MEAN_ELEMENT_THEORY":"SGP4","CLASSIFICATION_TYPE":"U","SEMIMAJOR_AXIS":"6925.345","ELEMENT_SET_NO":"999","INCLINATION":"53.0519","TIME_SYSTEM":"UTC","FILE":"3297147"},{"EPOCH":"2022-02-10T20:28:16.053312","LAUNCH_DATE":"2020-09-03","BSTAR":"0.00017645000000","OBJECT_TYPE":"PAYLOAD","MEAN_ANOMALY":"290.7608","SITE":"AFETR","REF_FRAME":"TEME","TLE_LINE2":"2 46365  53.0539 170.7723 0001412  69.3532 290.7608 15.06402454 80689","MEAN_MOTION_DDOT":"0.0000000000000","PERIAPSIS":"546.228","RCS_SIZE":"LARGE","ECCENTRICITY":"0.00014120","APOAPSIS":"548.184","CENTER_NAME":"EARTH","MEAN_MOTION":"15.06402454","COUNTRY_CODE":"US","REV_AT_EPOCH":"8068","RA_OF_ASC_NODE":"170.7723","PERIOD":"95.592","NORAD_CAT_ID":"46365","TLE_LINE1":"1 46365U 20062AS  22041.85296358  .00002348  00000-0  17645-3 0  9992","MEAN_MOTION_DOT":"0.00002348","EPHEMERIS_TYPE":"0","OBJECT_NAME":"STARLINK-1550","DECAY_DATE":null,"ARG_OF_PERICENTER":"69.3532","GP_ID":"195714736","SEMIMAJOR_AXIS":"6925.341","ELEMENT_SET_NO":"999","MEAN_ELEMENT_THEORY":"SGP4","CLASSIFICATION_TYPE":"U","OBJECT_ID":"2020-062AS","FILE":"3297147","TIME_SYSTEM":"UTC","INCLINATION":"53.0539"},{"EPHEMERIS_TYPE":"0","OBJECT_NAME":"STARLINK-1651","DECAY_DATE":null,"ARG_OF_PERICENTER":"81.9477","GP_ID":"195714486","CLASSIFICATION_TYPE":"U","MEAN_ELEMENT_THEORY":"SGP4","SEMIMAJOR_AXIS":"6925.376","ELEMENT_SET_NO":"999","OBJECT_ID":"2020-062AT","TIME_SYSTEM":"UTC","FILE":"3297147","INCLINATION":"53.0545","COUNTRY_CODE":"US","REV_AT_EPOCH":"8067","RA_OF_ASC_NODE":"171.1237","NORAD_CAT_ID":"46366","PERIOD":"95.593","TLE_LINE1":"1 46366U 20062AT  22041.77556859  .00000883  00000-0  78189-4 0  9992","MEAN_MOTION_DOT":"0.00000883","MEAN_MOTION_DDOT":"0.0000000000000","PERIAPSIS":"546.310","RCS_SIZE":"LARGE","ECCENTRICITY":"0.00013450","APOAPSIS":"548.173","CENTER_NAME":"EARTH","MEAN_MOTION":"15.06390959","EPOCH":"2022-02-10T18:36:49.126176","LAUNCH_DATE":"2020-09-03","BSTAR":"0.00007818900000","MEAN_ANOMALY":"278.1665","OBJECT_TYPE":"PAYLOAD","TLE_LINE2":"2 46366  53.0545 171.1237 0001345  81.9477 278.1665 15.06390959 80673","SITE":"AFETR","REF_FRAME":"TEME"},{"RA_OF_ASC_NODE":"195.8355","MEAN_MOTION_DOT":"-0.00000173","TLE_LINE1":"1 46368U 20062AV  22041.84145373 -.00000173  00000-0  73132-5 0  9994","PERIOD":"95.592","NORAD_CAT_ID":"46368","REV_AT_EPOCH":"8034","COUNTRY_CODE":"US","OBJECT_ID":"2020-062AV","ELEMENT_SET_NO":"999","SEMIMAJOR_AXIS":"6925.353","CLASSIFICATION_TYPE":"U","MEAN_ELEMENT_THEORY":"SGP4","INCLINATION":"53.0529","FILE":"3297147","TIME_SYSTEM":"UTC","DECAY_DATE":null,"OBJECT_NAME":"STARLINK-1658","EPHEMERIS_TYPE":"0","GP_ID":"195713235","ARG_OF_PERICENTER":"70.8676","SITE":"AFETR","REF_FRAME":"TEME","TLE_LINE2":"2 46368  53.0529 195.8355 0001642  70.8676 289.2491 15.06398616 80341","OBJECT_TYPE":"PAYLOAD","MEAN_ANOMALY":"289.2491","EPOCH":"2022-02-10T20:11:41.602272","BSTAR":"0.00000731320000","LAUNCH_DATE":"2020-09-03","APOAPSIS":"548.355","MEAN_MOTION":"15.06398616","CENTER_NAME":"EARTH","RCS_SIZE":"LARGE","PERIAPSIS":"546.081","MEAN_MOTION_DDOT":"0.0000000000000","ECCENTRICITY":"0.00016420"},{"OBJECT_TYPE":"PAYLOAD","MEAN_ANOMALY":"290.5947","REF_FRAME":"TEME","SITE":"AFETR","TLE_LINE2":"2 46370  53.0548 196.0082 0001823  69.5237 290.5947 15.06407901 80332","EPOCH":"2022-02-10T19:18:36.207936","LAUNCH_DATE":"2020-09-03","BSTAR":"0.00011196000000","APOAPSIS":"548.452","CENTER_NAME":"EARTH","MEAN_MOTION":"15.06407901","MEAN_MOTION_DDOT":"0.0000000000000","RCS_SIZE":"LARGE","PERIAPSIS":"545.927","ECCENTRICITY":"0.00018230","RA_OF_ASC_NODE":"196.0082","PERIOD":"95.592","NORAD_CAT_ID":"46370","MEAN_MOTION_DOT":"0.00001387","TLE_LINE1":"1 46370U 20062AX  22041.80458574  .00001387  00000-0  11196-3 0  9990","COUNTRY_CODE":"US","REV_AT_EPOCH":"8033","ELEMENT_SET_NO":"999","SEMIMAJOR_AXIS":"6925.324","MEAN_ELEMENT_THEORY":"SGP4","CLASSIFICATION_TYPE":"U","OBJECT_ID":"2020-062AX","FILE":"3297147","TIME_SYSTEM":"UTC","INCLINATION":"53.0548","EPHEMERIS_TYPE":"0","DECAY_DATE":null,"OBJECT_NAME":"STARLINK-1670","ARG_OF_PERICENTER":"69.5237","GP_ID":"195713485"},{"MEAN_MOTION_DDOT":"0.0000000000000","RCS_SIZE":"LARGE","PERIAPSIS":"546.215","ECCENTRICITY":"0.00014440","APOAPSIS":"548.215","CENTER_NAME":"EARTH","MEAN_MOTION":"15.06399609","EPOCH":"2022-02-10T20:43:32.382336","LAUNCH_DATE":"2020-09-03","BSTAR":"0.00010670000000","MEAN_ANOMALY":"289.9540","OBJECT_TYPE":"PAYLOAD","TLE_LINE2":"2 46371  53.0530 195.7254 0001444  70.1604 289.9540 15.06399609 80343","REF_FRAME":"TEME","SITE":"AFETR","EPHEMERIS_TYPE":"0","OBJECT_NAME":"STARLINK-1688","DECAY_DATE":null,"ARG_OF_PERICENTER":"70.1604","GP_ID":"195714237","MEAN_ELEMENT_THEORY":"SGP4","CLASSIFICATION_TYPE":"U","ELEMENT_SET_NO":"999","SEMIMAJOR_AXIS":"6925.350","OBJECT_ID":"2020-062AY","TIME_SYSTEM":"UTC","FILE":"3297147","INCLINATION":"53.0530","COUNTRY_CODE":"US","REV_AT_EPOCH":"8034","RA_OF_ASC_NODE":"195.7254","NORAD_CAT_ID":"46371","PERIOD":"95.592","TLE_LINE1":"1 46371U 20062AY  22041.86356924  .00001308  00000-0  10670-3 0  9992","MEAN_MOTION_DOT":"0.00001308"},{"TLE_LINE2":"2 46372  53.0534 215.6804 0001586  77.8016 282.3151 15.06401457 80068","REF_FRAME":"TEME","SITE":"AFETR","MEAN_ANOMALY":"282.3151","OBJECT_TYPE":"PAYLOAD","EPOCH":"2022-02-10T20:56:48.658560","BSTAR":"0.00005942600000","LAUNCH_DATE":"2020-09-03","APOAPSIS":"548.307","MEAN_MOTION":"15.06401457","CENTER_NAME":"EARTH","PERIAPSIS":"546.111","RCS_SIZE":"LARGE","MEAN_MOTION_DDOT":"0.0000000000000","ECCENTRICITY":"0.00015860","RA_OF_ASC_NODE":"215.6804","TLE_LINE1":"1 46372U 20062AZ  22041.87278540  .00000604  00000-0  59426-4 0  9992","MEAN_MOTION_DOT":"0.00000604","NORAD_CAT_ID":"46372","PERIOD":"95.592","REV_AT_EPOCH":"8006","COUNTRY_CODE":"US","OBJECT_ID":"2020-062AZ","CLASSIFICATION_TYPE":"U","MEAN_ELEMENT_THEORY":"SGP4","ELEMENT_SET_NO":"999","SEMIMAJOR_AXIS":"6925.344","INCLINATION":"53.0534","TIME_SYSTEM":"UTC","FILE":"3297147","OBJECT_NAME":"STARLINK-1689","DECAY_DATE":null,"EPHEMERIS_TYPE":"0","GP_ID":"195714986","ARG_OF_PERICENTER":"77.8016"},{"EPOCH":"2022-02-10T18:05:37.804128","BSTAR":"0.00028310000000","LAUNCH_DATE":"2020-09-03","SITE":"AFETR","REF_FRAME":"TEME","TLE_LINE2":"2 46374  53.0533 146.2290 0000826 138.0317 222.0735 15.06401629 81024","OBJECT_TYPE":"PAYLOAD","MEAN_ANOMALY":"222.0735","PERIAPSIS":"546.637","RCS_SIZE":"LARGE","MEAN_MOTION_DDOT":"0.0000000000000","ECCENTRICITY":"0.00008260","APOAPSIS":"547.781","MEAN_MOTION":"15.06401629","CENTER_NAME":"EARTH","REV_AT_EPOCH":"8102","COUNTRY_CODE":"US","RA_OF_ASC_NODE":"146.2290","TLE_LINE1":"1 46374U 20062BB  22041.75390977  .00003938  00000-0  28310-3 0  9990","MEAN_MOTION_DOT":"0.00003938","PERIOD":"95.592","NORAD_CAT_ID":"46374","OBJECT_NAME":"STARLINK-1711","DECAY_DATE":null,"EPHEMERIS_TYPE":"0","GP_ID":"195713735","ARG_OF_PERICENTER":"138.0317","OBJECT_ID":"2020-062BB","SEMIMAJOR_AXIS":"6925.344","ELEMENT_SET_NO":"999","MEAN_ELEMENT_THEORY":"SGP4","CLASSIFICATION_TYPE":"U","INCLINATION":"53.0533","FILE":"3297147","TIME_SYSTEM":"UTC"},{"OBJECT_ID":"2020-062BC","ELEMENT_SET_NO":"999","SEMIMAJOR_AXIS":"6925.345","MEAN_ELEMENT_THEORY":"SGP4","CLASSIFICATION_TYPE":"U","INCLINATION":"53.0537","FILE":"3297147","TIME_SYSTEM":"UTC","DECAY_DATE":null,"OBJECT_NAME":"STARLINK-1724","EPHEMERIS_TYPE":"0","GP_ID":"195713985","ARG_OF_PERICENTER":"59.8910","RA_OF_ASC_NODE":"170.8524","TLE_LINE1":"1 46375U 20062BC  22041.83454614  .00000458  00000-0  49645-4 0  9998","MEAN_MOTION_DOT":"0.00000458","PERIOD":"95.592","NORAD_CAT_ID":"46375","REV_AT_EPOCH":"8068","COUNTRY_CODE":"US","APOAPSIS":"548.279","MEAN_MOTION":"15.06401175","CENTER_NAME":"EARTH","PERIAPSIS":"546.141","RCS_SIZE":"LARGE","MEAN_MOTION_DDOT":"0.0000000000000","ECCENTRICITY":"0.00015440","REF_FRAME":"TEME","SITE":"AFETR","TLE_LINE2":"2 46375  53.0537 170.8524 0001544  59.8910 300.2232 15.06401175 80687","OBJECT_TYPE":"PAYLOAD","MEAN_ANOMALY":"300.2232","EPOCH":"2022-02-10T20:01:44.786496","BSTAR":"0.00004964500000","LAUNCH_DATE":"2020-09-03"}];
